NORAD_CAT_ID,OBJECT_NAME,OBJECT_TYPE,EPOCH,MEAN_MOTION,ECCENTRICITY,INCLINATION,RA_OF_ASC_NODE,ARG_OF_PERICENTER,MEAN_ANOMALY,BSTAR,MEAN_MOTION_DOT,MEAN_MOTION_DDOT,TLE_LINE0,TLE_LINE1,TLE_LINE2,SEMIMAJOR_AXIS,PERIOD,APOGEE,PERIGEE,DECAYED
53276.0,STARLINK-4174,PAYLOAD,2023-05-16 15:41:10,15.08838715,0.0001136,53.2156,119.1513,86.6884,273.4238,0.0001045,1.376e-05,0.0,0 STARLINK-4174,1 53276U 22086AL  23136.65359086  .00001376  00000-0  10450-3 0  9998,2 53276  53.2156 119.1513 0001136  86.6884 273.4238 15.08838715 45991,6917.884,95.438,540.535,538.963,0.0
53276.0,STARLINK-4174,PAYLOAD,2023-05-17 02:48:51,15.08854338,0.0001123,53.2155,117.0691,85.9375,274.1745,0.00011384,1.525e-05,0.0,0 STARLINK-4174,1 53276U 22086AL  23137.11725831  .00001525  00000-0  11384-3 0  9998,2 53276  53.2155 117.0691 0001123  85.9375 274.1745 15.08854338 45896,6917.837,95.437,540.478,538.925,0.0
53276.0,STARLINK-4174,PAYLOAD,2023-05-17 15:31:56,15.08842419,0.0001516,53.2159,114.6899,76.8522,283.2639,2.5011e-05,1.1e-06,0.0,0 STARLINK-4174,1 53276U 22086AL  23137.64718628  .00000110  00000-0  25011-4 0  9994,2 53276  53.2159 114.6899 0001516  76.8522 283.2639 15.08842419 45971,6917.873,95.437,540.787,538.689,0.0
53276.0,STARLINK-4174,PAYLOAD,2023-05-18 02:39:40,15.08824999,0.0001181,53.2161,112.6086,81.6436,278.469,-3.2828e-05,-8.1e-06,0.0,0 STARLINK-4174,1 53276U 22086AL  23138.11088041 -.00000810  00000-0 -32828-4 0  9999,2 53276  53.2161 112.6086 0001181  81.6436 278.4690 15.08824999 46041,6917.926,95.439,540.608,538.974,0.0
53276.0,STARLINK-4174,PAYLOAD,2023-05-18 07:25:49,15.08827676,0.0001086,53.2163,111.7165,82.2162,277.8954,-7.5757e-05,-1.493e-05,0.0,0 STARLINK-4174,1 53276U 22086AL  23138.30960106 -.00001493  00000-0 -75757-4 0  9997,2 53276  53.2163 111.7165 0001086  82.2162 277.8954 15.08827676 46241,6917.918,95.438,540.534,539.032,0.0
53276.0,STARLINK-4174,PAYLOAD,2023-05-18 21:44:17,15.08838642,0.000114,53.2173,109.0402,81.4241,278.688,-9.3871e-05,-1.781e-05,0.0,0 STARLINK-4174,1 53276U 22086AL  23138.90575713 -.00001781  00000-0 -93871-4 0  9996,2 53276  53.2173 109.0402 0001140  81.4241 278.6880 15.08838642 46338,6917.885,95.438,540.538,538.961,0.0
53276.0,STARLINK-4174,PAYLOAD,2023-05-19 02:30:26,15.08841182,0.0001105,53.2168,108.1496,81.801,278.3107,-6.6211e-05,-1.341e-05,0.0,0 STARLINK-4174,1 53276U 22086AL  23139.10447434 -.00001341  00000-0 -66211-4 0  9997,2 53276  53.2168 108.1496 0001105  81.8010 278.3107 15.08841182 46190,6917.877,95.437,540.506,538.977,0.0
53276.0,STARLINK-4174,PAYLOAD,2023-05-19 21:35:04,15.08831522,0.000108,53.2167,104.5807,76.1914,283.9198,0.00015155,2.124e-05,0.0,0 STARLINK-4174,1 53276U 22086AL  23139.89935406  .00002124  00000-0  15155-3 0  9992,2 53276  53.2167 104.5807 0001080  76.1914 283.9198 15.08831522 46488,6917.906,95.438,540.518,539.024,0.0
53276.0,STARLINK-4174,PAYLOAD,2023-05-20 03:56:36,15.08839406,0.0001009,53.2162,103.3911,81.6318,278.4789,0.00016717,2.374e-05,0.0,0 STARLINK-4174,1 53276U 22086AL  23140.16431058  .00002374  00000-0  16717-3 0  9990,2 53276  53.2162 103.3911 0001009  81.6318 278.4789 15.08839406 46356,6917.882,95.438,540.445,539.049,0.0
53276.0,STARLINK-4174,PAYLOAD,2023-05-20 07:07:22,15.08842808,0.0001047,53.2162,102.7959,82.1859,277.9252,0.0001952,2.82e-05,0.0,0 STARLINK-4174,1 53276U 22086AL  23140.29678805  .00002820  00000-0  19520-3 0  9998,2 53276  53.2162 102.7959 0001047  82.1859 277.9252 15.08842808 46549,6917.872,95.437,540.461,539.013,0.0
53276.0,STARLINK-4174,PAYLOAD,2023-05-21 03:47:23,15.08844363,0.0001084,53.2157,98.9293,83.3664,276.7452,9.2066e-05,1.178e-05,0.0,0 STARLINK-4174,1 53276U 22086AL  23141.15790965  .00001178  00000-0  92066-4 0  9998,2 53276  53.2157  98.9293 0001084  83.3664 276.7452 15.08844363 46679,6917.867,95.437,540.482,538.982,0.0
53276.0,STARLINK-4174,PAYLOAD,2023-05-22 03:38:11,15.08837312,0.0001271,53.2168,94.467,90.9781,269.1357,-5.0959e-05,-1.099e-05,0.0,0 STARLINK-4174,1 53276U 22086AL  23142.15152083 -.00001099  00000-0 -50959-4 0  9991,2 53276  53.2168  94.4670 0001271  90.9781 269.1357 15.08837312 46657,6917.889,95.438,540.633,538.874,0.0
53276.0,STARLINK-4174,PAYLOAD,2023-05-22 06:48:57,15.08833943,0.0001232,53.218,93.8737,88.58,271.5333,-8.3651e-05,-1.619e-05,0.0,0 STARLINK-4174,1 53276U 22086AL  23142.28400413 -.00001619  00000-0 -83651-4 0  9991,2 53276  53.2180  93.8737 0001232  88.5800 271.5333 15.08833943 46848,6917.899,95.438,540.616,538.912,0.0
53276.0,STARLINK-4174,PAYLOAD,2023-05-23 01:53:34,15.08844879,0.0001191,53.2183,90.3065,84.2038,275.909,3.8371e-05,3.23e-06,0.0,0 STARLINK-4174,1 53276U 22086AL  23143.07887528  .00000323  00000-0  38371-4 0  9993,2 53276  53.2183  90.3065 0001191  84.2038 275.9090 15.08844879 46799,6917.865,95.437,540.554,538.907,0.0
53276.0,STARLINK-4174,PAYLOAD,2023-05-23 06:39:43,15.08851238,0.0001139,53.2171,89.4154,84.4027,275.7095,9.0806e-05,1.158e-05,0.0,0 STARLINK-4174,1 53276U 22086AL  23143.27758946  .00001158  00000-0  90806-4 0  9994,2 53276  53.2171  89.4154 0001139  84.4027 275.7095 15.08851238 46820,6917.846,95.437,540.499,538.923,0.0
53276.0,STARLINK-4174,PAYLOAD,2023-05-24 00:08:59,15.08832557,0.0001434,53.2175,86.1409,112.9852,247.1292,8.1328e-05,1.006e-05,0.0,0 STARLINK-4174,1 53276U 22086AL  23144.00624302  .00001006  00000-0  81328-4 0  9995,2 53276  53.2175  86.1409 0001434 112.9852 247.1292 15.08832557 46939,6917.903,95.438,540.76,538.776,0.0
53276.0,STARLINK-4174,PAYLOAD,2023-05-24 03:19:45,15.0883207,0.00013,53.2177,85.5455,105.8666,254.247,6.9643e-05,8.2e-06,0.0,0 STARLINK-4174,1 53276U 22086AL  23144.13872450  .00000820  00000-0  69643-4 0  9997,2 53276  53.2177  85.5455 0001300 105.8666 254.2470 15.08832070 47120,6917.905,95.438,540.669,538.87,0.0
53276.0,STARLINK-4174,PAYLOAD,2023-05-26 03:01:19,15.08841264,0.0001193,53.2175,76.6272,112.1636,247.9483,9.7623e-05,1.266e-05,0.0,0 STARLINK-4174,1 53276U 22086AL  23146.12592207  .00001266  00000-0  97623-4 0  9991,2 53276  53.2175  76.6272 0001193 112.1636 247.9483 15.08841264 47256,6917.877,95.437,540.567,538.916,0.0
53276.0,STARLINK-4174,PAYLOAD,2023-05-26 18:55:11,15.08835868,0.0001096,53.2172,73.6549,113.0906,247.0201,5.8246e-06,-1.95e-06,0.0,0 STARLINK-4174,1 53276U 22086AL  23146.78833047 -.00000195  00000-0  58246-5 0  9993,2 53276  53.2172  73.6549 0001096 113.0906 247.0201 15.08835868 47352,6917.893,95.438,540.516,539.0,0.0
53276.0,STARLINK-4174,PAYLOAD,2023-05-27 12:24:26,15.08840422,0.0001175,53.2183,70.3843,98.9842,261.1284,3.9285e-05,3.37e-06,0.0,0 STARLINK-4174,1 53276U 22086AL  23147.51696860  .00000337  00000-0  39285-4 0  9993,2 53276  53.2183  70.3843 0001175  98.9842 261.1284 15.08840422 47634,6917.879,95.438,540.557,538.931,0.0
53276.0,STARLINK-4174,PAYLOAD,2023-05-28 01:07:30,15.08854294,0.0001111,53.2179,68.0052,93.0042,267.1077,3.9629e-05,3.43e-06,0.0,0 STARLINK-4174,1 53276U 22086AL  23148.04687958  .00000343  00000-0  39629-4 0  9999,2 53276  53.2179  68.0052 0001111  93.0042 267.1077 15.08854294 47541,6917.837,95.437,540.47,538.933,0.0
53276.0,STARLINK-4174,PAYLOAD,2023-05-28 21:47:31,15.08841534,0.0001054,53.2178,64.1391,89.5732,270.538,7.3033e-05,8.75e-06,0.0,0 STARLINK-4174,1 53276U 22086AL  23148.90800538  .00000875  00000-0  73033-4 0  9992,2 53276  53.2178  64.1391 0001054  89.5732 270.5380 15.08841534 47846,6917.876,95.437,540.47,539.012,0.0
53276.0,STARLINK-4174,PAYLOAD,2023-05-29 00:58:17,15.08845307,0.00011,53.2184,63.5439,96.7207,263.391,9.682e-05,1.254e-05,0.0,0 STARLINK-4174,1 53276U 22086AL  23149.04048189  .00001254  00000-0  96820-4 0  9995,2 53276  53.2184  63.5439 0001100  96.7207 263.3910 15.08845307 47692,6917.864,95.437,540.49,538.968,0.0
53276.0,STARLINK-4174,PAYLOAD,2023-05-29 18:27:33,15.08836901,0.0001022,53.2175,60.2745,87.4338,272.6771,-6.5878e-05,-1.336e-05,0.0,0 STARLINK-4174,1 53276U 22086AL  23149.76913294 -.00001336  00000-0 -65878-4 0  9994,2 53276  53.2175  60.2745 0001022  87.4338 272.6771 15.08836901 47802,6917.89,95.438,540.462,539.048,0.0
53276.0,STARLINK-4174,PAYLOAD,2023-05-30 03:59:52,15.08829883,0.0001035,53.2184,58.4888,97.102,263.009,-6.6427e-05,-1.344e-05,0.0,0 STARLINK-4174,1 53276U 22086AL  23150.16657756 -.00001344  00000-0 -66427-4 0  9998,2 53276  53.2184  58.4888 0001035  97.1020 263.0090 15.08829883 48034,6917.911,95.438,540.492,539.06,0.0
53276.0,STARLINK-4174,PAYLOAD,2023-05-30 21:29:05,15.08841816,0.0001067,53.2179,55.2198,106.3524,253.7585,6.8824e-05,8.08e-06,0.0,0 STARLINK-4174,1 53276U 22086AL  23150.89520627  .00000808  00000-0  68824-4 0  9999,2 53276  53.2179  55.2198 0001067 106.3524 253.7585 15.08841816 48141,6917.875,95.437,540.478,539.002,0.0
53276.0,STARLINK-4174,PAYLOAD,2023-05-31 00:39:51,15.08850506,8.98e-05,53.2177,54.6258,82.7968,277.3126,6.1398e-05,6.9e-06,0.0,0 STARLINK-4174,1 53276U 22086AL  23151.02768169  .00000690  00000-0  61398-4 0  9998,2 53276  53.2177  54.6258 0000898  82.7968 277.3126 15.08850506 47990,6917.848,95.437,540.334,539.092,0.0
53276.0,STARLINK-4174,PAYLOAD,2023-05-31 03:50:39,15.08787185,0.0001399,53.2173,54.0302,89.9324,270.1829,0.0010022,0.00015675,0.0,0 STARLINK-4174,1 53276U 22086AL  23151.16017410  .00015675  00000-0  10022-2 0  9994,2 53276  53.2173  54.0302 0001399  89.9324 270.1829 15.08787185 48019,6918.042,95.441,540.875,538.939,0.0
53276.0,STARLINK-4174,PAYLOAD,2023-05-31 16:33:44,15.08828421,0.000116,53.2174,51.6522,73.6555,286.4565,8.133e-05,1.006e-05,0.0,0 STARLINK-4174,1 53276U 22086AL  23151.69009734  .00001006  00000-0  81330-4 0  9997,2 53276  53.2174  51.6522 0001160  73.6555 286.4565 15.08828421 48093,6917.916,95.438,540.583,538.978,0.0
53276.0,STARLINK-4174,PAYLOAD,2023-05-31 21:19:53,15.08829737,0.0001056,53.2176,50.7603,81.5431,278.5681,9.225e-05,1.18e-05,0.0,0 STARLINK-4174,1 53276U 22086AL  23151.88881740  .00001180  00000-0  92250-4 0  9999,2 53276  53.2176  50.7603 0001056  81.5431 278.5681 15.08829737 48294,6917.912,95.438,540.507,539.046,0.0
